[{"OBJECT_NAME":"JILIN-1 09","OBJECT_ID":"2019-005B","EPOCH":"2026-04-04T22:02:16.610784","MEAN_MOTION":15.19858518,"ECCENTRICITY":0.00022383,"INCLINATION":97.4702,"RA_OF_ASC_NODE":190.5609,"ARG_OF_PERICENTER":28.3023,"MEAN_ANOMALY":331.8333,"EPHEMERIS_TYPE":0,"CLASSIFICATION_TYPE":"U","NORAD_CAT_ID":43943,"ELEMENT_SET_NO":999,"REV_AT_EPOCH":39801,"BSTAR":0.00034862553,"MEAN_MOTION_DOT":7.412e-5,"MEAN_MOTION_DDOT":0},{"OBJECT_NAME":"JILIN-1 10","OBJECT_ID":"2019-005E","EPOCH":"2026-04-04T21:56:13.768800","MEAN_MOTION":15.24893455,"ECCENTRICITY":0.00087688,"INCLINATION":97.4737,"RA_OF_ASC_NODE":193.7883,"ARG_OF_PERICENTER":167.0306,"MEAN_ANOMALY":193.1159,"EPHEMERIS_TYPE":0,"CLASSIFICATION_TYPE":"U","NORAD_CAT_ID":43946,"ELEMENT_SET_NO":999,"REV_AT_EPOCH":39814,"BSTAR":0.00036004031,"MEAN_MOTION_DOT":8.895e-5,"MEAN_MOTION_DDOT":0},{"OBJECT_NAME":"EGYPTSAT-A (MISRSAT-A)","OBJECT_ID":"2019-008A","EPOCH":"2026-04-04T22:46:11.051328","MEAN_MOTION":14.72336101,"ECCENTRICITY":0.00013149,"INCLINATION":98.0097,"RA_OF_ASC_NODE":160.7919,"ARG_OF_PERICENTER":102.4345,"MEAN_ANOMALY":257.701,"EPHEMERIS_TYPE":0,"CLASSIFICATION_TYPE":"U","NORAD_CAT_ID":44047,"ELEMENT_SET_NO":999,"REV_AT_EPOCH":38246,"BSTAR":0.00021508864,"MEAN_MOTION_DOT":1.311e-5,"MEAN_MOTION_DDOT":0},{"OBJECT_NAME":"EMISAT","OBJECT_ID":"2019-018A","EPOCH":"2026-04-04T21:15:18.113184","MEAN_MOTION":14.43641514,"ECCENTRICITY":0.00197995,"INCLINATION":98.4718,"RA_OF_ASC_NODE":154.0642,"ARG_OF_PERICENTER":79.5753,"MEAN_ANOMALY":280.7667,"EPHEMERIS_TYPE":0,"CLASSIFICATION_TYPE":"U","NORAD_CAT_ID":44078,"ELEMENT_SET_NO":999,"REV_AT_EPOCH":36948,"BSTAR":0.00012015196,"MEAN_MOTION_DOT":3.65e-6,"MEAN_MOTION_DDOT":0},{"OBJECT_NAME":"JILIN-1 GAOFEN 3A","OBJECT_ID":"2019-032C","EPOCH":"2026-04-04T21:59:22.359264","MEAN_MOTION":15.31040824,"ECCENTRICITY":0.00051194,"INCLINATION":44.9761,"RA_OF_ASC_NODE":39.6921,"ARG_OF_PERICENTER":252.4327,"MEAN_ANOMALY":107.5998,"EPHEMERIS_TYPE":0,"CLASSIFICATION_TYPE":"U","NORAD_CAT_ID":44312,"ELEMENT_SET_NO":999,"REV_AT_EPOCH":37660,"BSTAR":0.00057751942,"MEAN_MOTION_DOT":0.00017396,"MEAN_MOTION_DDOT":0},{"OBJECT_NAME":"WT 1A","OBJECT_ID":"2019-032F","EPOCH":"2026-04-04T21:30:33.471936","MEAN_MOTION":15.90067228,"ECCENTRICITY":0.00144536,"INCLINATION":44.9694,"RA_OF_ASC_NODE":282.9144,"ARG_OF_PERICENTER":278.0421,"MEAN_ANOMALY":81.8845,"EPHEMERIS_TYPE":0,"CLASSIFICATION_TYPE":"U","NORAD_CAT_ID":44315,"ELEMENT_SET_NO":999,"REV_AT_EPOCH":37800,"BSTAR":0.0014743579,"MEAN_MOTION_DOT":0.00459792,"MEAN_MOTION_DDOT":8.8504411e-5},{"OBJECT_NAME":"WT 1B","OBJECT_ID":"2019-032G","EPOCH":"2026-04-04T21:41:22.598592","MEAN_MOTION":15.25729069,"ECCENTRICITY":0.00092884,"INCLINATION":44.9685,"RA_OF_ASC_NODE":100.5046,"ARG_OF_PERICENTER":206.0264,"MEAN_ANOMALY":154.0152,"EPHEMERIS_TYPE":0,"CLASSIFICATION_TYPE":"U","NORAD_CAT_ID":44316,"ELEMENT_SET_NO":999,"REV_AT_EPOCH":37588,"BSTAR":0.00085027478,"MEAN_MOTION_DOT":0.00021889,"MEAN_MOTION_DDOT":0},{"OBJECT_NAME":"PROX-1","OBJECT_ID":"2019-036A","EPOCH":"2026-04-04T10:39:12.491712","MEAN_MOTION":14.888724,"ECCENTRICITY":0.00056984,"INCLINATION":23.9949,"RA_OF_ASC_NODE":246.1671,"ARG_OF_PERICENTER":263.9614,"MEAN_ANOMALY":96.0235,"EPHEMERIS_TYPE":0,"CLASSIFICATION_TYPE":"U","NORAD_CAT_ID":44339,"ELEMENT_SET_NO":999,"REV_AT_EPOCH":36246,"BSTAR":0.002208032,"MEAN_MOTION_DOT":0.00021533,"MEAN_MOTION_DDOT":0},{"OBJECT_NAME":"NPSAT1","OBJECT_ID":"2019-036B","EPOCH":"2026-04-04T22:43:34.561056","MEAN_MOTION":14.73894703,"ECCENTRICITY":0.00077456,"INCLINATION":24.0004,"RA_OF_ASC_NODE":334.5063,"ARG_OF_PERICENTER":104.5278,"MEAN_ANOMALY":255.6077,"EPHEMERIS_TYPE":0,"CLASSIFICATION_TYPE":"U","NORAD_CAT_ID":44340,"ELEMENT_SET_NO":999,"REV_AT_EPOCH":36167,"BSTAR":0.0012495427,"MEAN_MOTION_DOT":8.624e-5,"MEAN_MOTION_DDOT":0},{"OBJECT_NAME":"FORMOSAT 7-3","OBJECT_ID":"2019-036E","EPOCH":"2026-04-04T22:39:10.501056","MEAN_MOTION":15.09243452,"ECCENTRICITY":0.00010158,"INCLINATION":24,"RA_OF_ASC_NODE":322.4271,"ARG_OF_PERICENTER":109.5037,"MEAN_ANOMALY":250.5577,"EPHEMERIS_TYPE":0,"CLASSIFICATION_TYPE":"U","NORAD_CAT_ID":44343,"ELEMENT_SET_NO":999,"REV_AT_EPOCH":37216,"BSTAR":0.00042727828,"MEAN_MOTION_DOT":7.329e-5,"MEAN_MOTION_DDOT":0},{"OBJECT_NAME":"FORMOSAT 7-1","OBJECT_ID":"2019-036L","EPOCH":"2026-04-04T21:27:15.690240","MEAN_MOTION":14.96192914,"ECCENTRICITY":0.00011176,"INCLINATION":23.997,"RA_OF_ASC_NODE":166.3952,"ARG_OF_PERICENTER":56.5073,"MEAN_ANOMALY":303.5535,"EPHEMERIS_TYPE":0,"CLASSIFICATION_TYPE":"U","NORAD_CAT_ID":44349,"ELEMENT_SET_NO":999,"REV_AT_EPOCH":37366,"BSTAR":0.00033775221,"MEAN_MOTION_DOT":4.203e-5,"MEAN_MOTION_DDOT":0},{"OBJECT_NAME":"FORMOSAT 7-4","OBJECT_ID":"2019-036M","EPOCH":"2026-04-04T17:11:11.562720","MEAN_MOTION":14.96186821,"ECCENTRICITY":0.00014516,"INCLINATION":23.9982,"RA_OF_ASC_NODE":229.6954,"ARG_OF_PERICENTER":58.3553,"MEAN_ANOMALY":301.709,"EPHEMERIS_TYPE":0,"CLASSIFICATION_TYPE":"U","NORAD_CAT_ID":44350,"ELEMENT_SET_NO":999,"REV_AT_EPOCH":37305,"BSTAR":0.00038464471,"MEAN_MOTION_DOT":4.744e-5,"MEAN_MOTION_DDOT":0},{"OBJECT_NAME":"FORMOSAT 7-2","OBJECT_ID":"2019-036N","EPOCH":"2026-04-04T20:55:28.198560","MEAN_MOTION":14.96189619,"ECCENTRICITY":9.276e-5,"INCLINATION":23.9986,"RA_OF_ASC_NODE":282.9612,"ARG_OF_PERICENTER":64.011,"MEAN_ANOMALY":296.0486,"EPHEMERIS_TYPE":0,"CLASSIFICATION_TYPE":"U","NORAD_CAT_ID":44351,"ELEMENT_SET_NO":999,"REV_AT_EPOCH":37259,"BSTAR":0.00032678338,"MEAN_MOTION_DOT":4.076e-5,"MEAN_MOTION_DDOT":0},{"OBJECT_NAME":"FORMOSAT 7-6","OBJECT_ID":"2019-036Q","EPOCH":"2026-04-04T08:07:21.572832","MEAN_MOTION":14.96191285,"ECCENTRICITY":8.076e-5,"INCLINATION":23.9971,"RA_OF_ASC_NODE":107.3735,"ARG_OF_PERICENTER":337.4627,"MEAN_ANOMALY":22.5838,"EPHEMERIS_TYPE":0,"CLASSIFICATION_TYPE":"U","NORAD_CAT_ID":44353,"ELEMENT_SET_NO":999,"REV_AT_EPOCH":37074,"BSTAR":0.00039799477,"MEAN_MOTION_DOT":4.899e-5,"MEAN_MOTION_DDOT":0},{"OBJECT_NAME":"FORMOSAT 7-5","OBJECT_ID":"2019-036V","EPOCH":"2026-04-04T21:59:07.370592","MEAN_MOTION":14.96193308,"ECCENTRICITY":6.273e-5,"INCLINATION":24,"RA_OF_ASC_NODE":42.2292,"ARG_OF_PERICENTER":72.8805,"MEAN_ANOMALY":287.1765,"EPHEMERIS_TYPE":0,"CLASSIFICATION_TYPE":"U","NORAD_CAT_ID":44358,"ELEMENT_SET_NO":999,"REV_AT_EPOCH":37136,"BSTAR":0.00033711821,"MEAN_MOTION_DOT":4.195e-5,"MEAN_MOTION_DDOT":0},{"OBJECT_NAME":"METEOR-M2 2","OBJECT_ID":"2019-038A","EPOCH":"2026-04-04T21:46:16.084704","MEAN_MOTION":14.24344583,"ECCENTRICITY":6.736e-5,"INCLINATION":98.9117,"RA_OF_ASC_NODE":81.1258,"ARG_OF_PERICENTER":168.4548,"MEAN_ANOMALY":191.6646,"EPHEMERIS_TYPE":0,"CLASSIFICATION_TYPE":"U","NORAD_CAT_ID":44387,"ELEMENT_SET_NO":999,"REV_AT_EPOCH":35086,"BSTAR":1.8148404e-5,"MEAN_MOTION_DOT":-4.0e-8,"MEAN_MOTION_DDOT":0}]
