JILIN-1 09              
1 43943U 19005B   26094.91824781  .00007412  00000+0  34863-3 0  9999
2 43943  97.4702 190.5609 0002238  28.3023 331.8333 15.19858518398013
JILIN-1 10              
1 43946U 19005E   26094.91404825  .00008895  00000+0  36004-3 0  9990
2 43946  97.4737 193.7883 0008768 167.0306 193.1159 15.24893455398146
EGYPTSAT-A (MISRSAT-A)  
1 44047U 19008A   26094.94873902  .00001311  00000+0  21509-3 0  9995
2 44047  98.0097 160.7919 0001314 102.4345 257.7010 14.72336101382468
EMISAT                  
1 44078U 19018A   26094.88562631  .00000365  00000+0  12015-3 0  9997
2 44078  98.4718 154.0642 0019799  79.5753 280.7667 14.43641514369484
JILIN-1 GAOFEN 3A       
1 44312U 19032C   26094.91623101  .00017396  00000+0  57752-3 0  9997
2 44312  44.9761  39.6921 0005119 252.4327 107.5998 15.31040824376607
WT 1A                   
1 44315U 19032F   26094.89622074  .00459792  88504-4  14744-2 0  9998
2 44315  44.9694 282.9144 0014453 278.0421  81.8845 15.90067228378008
WT 1B                   
1 44316U 19032G   26094.90373378  .00021889  00000+0  85027-3 0  9996
2 44316  44.9685 100.5046 0009288 206.0264 154.0152 15.25729069375884
PROX-1                  
1 44339U 19036A   26094.44389458  .00021533  00000+0  22080-2 0  9995
2 44339  23.9949 246.1671 0005698 263.9614  96.0235 14.88872400362465
NPSAT1                  
1 44340U 19036B   26094.94692779  .00008624  00000+0  12495-2 0  9990
2 44340  24.0004 334.5063 0007745 104.5278 255.6077 14.73894703361672
FORMOSAT 7-3            
1 44343U 19036E   26094.94387154  .00007329  00000+0  42728-3 0  9995
2 44343  24.0000 322.4271 0001015 109.5037 250.5577 15.09243452372164
FORMOSAT 7-1            
1 44349U 19036L   26094.89393160  .00004203  00000+0  33775-3 0  9999
2 44349  23.9970 166.3952 0001117  56.5073 303.5535 14.96192914373669
FORMOSAT 7-4            
1 44350U 19036M   26094.71610605  .00004744  00000+0  38464-3 0  9998
2 44350  23.9982 229.6954 0001451  58.3553 301.7090 14.96186821373052
FORMOSAT 7-2            
1 44351U 19036N   26094.87185415  .00004076  00000+0  32678-3 0  9991
2 44351  23.9986 282.9612 0000927  64.0110 296.0486 14.96189619372591
FORMOSAT 7-6            
1 44353U 19036Q   26094.33844413  .00004899  00000+0  39799-3 0  9998
2 44353  23.9971 107.3735 0000807 337.4627  22.5838 14.96191285370740
FORMOSAT 7-5            
1 44358U 19036V   26094.91605753  .00004195  00000+0  33712-3 0  9997
2 44358  24.0000  42.2292 0000627  72.8805 287.1765 14.96193308371368
METEOR-M2 2             
1 44387U 19038A   26094.90713061 -.00000004  00000+0  18148-4 0  9995
2 44387  98.9117  81.1258 0000673 168.4548 191.6646 14.24344583350863
